{
    "links": {
        "self": "http://www.neowsapp.com/rest/v1/neo/3799002?api_key=iIulBulltgU6a56xZRHN4H3l9WmuAYTsLGpBGhQ2"
    },
    "id": "3799002",
    "neo_reference_id": "3799002",
    "name": "(2018 CM)",
    "designation": "2018 CM",
    "nasa_jpl_url": "http://ssd.jpl.nasa.gov/sbdb.cgi?sstr=3799002",
    "absolute_magnitude_h": 27.8,
    "estimated_diameter": {
        "kilometers": {
            "estimated_diameter_min": 0.0073207399,
            "estimated_diameter_max": 0.016369672
        },
        "meters": {
            "estimated_diameter_min": 7.3207398935,
            "estimated_diameter_max": 16.3696720474
        },
        "miles": {
            "estimated_diameter_min": 0.0045488955,
            "estimated_diameter_max": 0.0101716395
        },
        "feet": {
            "estimated_diameter_min": 24.0181762721,
            "estimated_diameter_max": 53.70627484
        }
    },
    "is_potentially_hazardous_asteroid": false,
    "close_approach_data": [
        {
            "close_approach_date": "2015-05-20",
            "close_approach_date_full": "2015-May-20 10:03",
            "epoch_date_close_approach": 1432116180000,
            "relative_velocity": {
                "kilometers_per_second": "21.5737472735",
                "kilometers_per_hour": "77665.4901844776",
                "miles_per_hour": "48258.3152760161"
            },
            "miss_distance": {
                "astronomical": "0.4008926212",
                "lunar": "155.9472296468",
                "kilometers": "59972682.230236844",
                "miles": "37265296.7230986872"
            },
            "orbiting_body": "Earth"
        },
        {
            "close_approach_date": "2018-02-06",
            "close_approach_date_full": "2018-Feb-06 17:19",
            "epoch_date_close_approach": 1517937540000,
            "relative_velocity": {
                "kilometers_per_second": "9.598698552",
                "kilometers_per_hour": "34555.3147872614",
                "miles_per_hour": "21471.328791007"
            },
            "miss_distance": {
                "astronomical": "0.0054896219",
                "lunar": "2.1354629191",
                "kilometers": "821235.743345353",
                "miles": "510292.2283497514"
            },
            "orbiting_body": "Earth"
        },
        {
            "close_approach_date": "2018-02-06",
            "close_approach_date_full": "2018-Feb-06 22:24",
            "epoch_date_close_approach": 1517955840000,
            "relative_velocity": {
                "kilometers_per_second": "8.7215308388",
                "kilometers_per_hour": "31397.5110197415",
                "miles_per_hour": "19509.1923333499"
            },
            "miss_distance": {
                "astronomical": "0.0032462193",
                "lunar": "1.2627793077",
                "kilometers": "485627.492832891",
                "miles": "301754.9314842558"
            },
            "orbiting_body": "Moon"
        }
    ],
    "orbital_data": {
        "orbit_id": "2",
        "orbit_determination_date": "2020-08-22 06:31:31",
        "first_observation_date": "2018-02-05",
        "last_observation_date": "2018-02-06",
        "data_arc_in_days": 1,
        "observations_used": 33,
        "orbit_uncertainty": "7",
        "minimum_orbit_intersection": ".000111001",
        "jupiter_tisserand_invariant": "3.646",
        "epoch_osculation": "2459000.5",
        "eccentricity": ".5325540781633868",
        "semi_major_axis": "2.004490452031493",
        "inclination": "1.499502742931441",
        "ascending_node_longitude": "138.6360284798022",
        "orbital_period": "1036.583793941239",
        "perihelion_distance": ".9369908871625506",
        "perihelion_argument": "31.35345578135596",
        "aphelion_distance": "3.071990016900435",
        "perihelion_time": "2459217.310987453986",
        "mean_anomaly": "284.7027052326657",
        "mean_motion": ".347294644296173",
        "equinox": "J2000",
        "orbit_class": {
            "orbit_class_type": "APO",
            "orbit_class_description": "Near-Earth asteroid orbits which cross the Earth’s orbit similar to that of 1862 Apollo",
            "orbit_class_range": "a (semi-major axis) > 1.0 AU; q (perihelion) < 1.017 AU"
        }
    },
    "is_sentry_object": false
}